[{"OBJECT_NAME":"TDRS 3","OBJECT_ID":"1988-091B","EPOCH":"2026-03-28T02:34:15.649248","MEAN_MOTION":1.00269546,"ECCENTRICITY":0.00425433,"INCLINATION":12.6635,"RA_OF_ASC_NODE":341.5377,"ARG_OF_PERICENTER":354.8893,"MEAN_ANOMALY":198.7533,"EPHEMERIS_TYPE":0,"CLASSIFICATION_TYPE":"U","NORAD_CAT_ID":19548,"ELEMENT_SET_NO":999,"REV_AT_EPOCH":12457,"BSTAR":0,"MEAN_MOTION_DOT":-3.12e-6,"MEAN_MOTION_DDOT":0},{"OBJECT_NAME":"FLTSATCOM 8 (USA 46)","OBJECT_ID":"1989-077A","EPOCH":"2026-03-28T13:40:26.698944","MEAN_MOTION":1.00275102,"ECCENTRICITY":0.0008059,"INCLINATION":12.4438,"RA_OF_ASC_NODE":351.6472,"ARG_OF_PERICENTER":356.3586,"MEAN_ANOMALY":168.8484,"EPHEMERIS_TYPE":0,"CLASSIFICATION_TYPE":"U","NORAD_CAT_ID":20253,"ELEMENT_SET_NO":999,"REV_AT_EPOCH":25975,"BSTAR":0,"MEAN_MOTION_DOT":-3.8e-6,"MEAN_MOTION_DDOT":0},{"OBJECT_NAME":"SKYNET 4C","OBJECT_ID":"1990-079A","EPOCH":"2026-03-28T20:04:47.905248","MEAN_MOTION":1.00272795,"ECCENTRICITY":0.00034695,"INCLINATION":13.3658,"RA_OF_ASC_NODE":350.3637,"ARG_OF_PERICENTER":5.3383,"MEAN_ANOMALY":165.0871,"EPHEMERIS_TYPE":0,"CLASSIFICATION_TYPE":"U","NORAD_CAT_ID":20776,"ELEMENT_SET_NO":999,"REV_AT_EPOCH":13008,"BSTAR":0,"MEAN_MOTION_DOT":1.13e-6,"MEAN_MOTION_DDOT":0},{"OBJECT_NAME":"TDRS 5","OBJECT_ID":"1991-054B","EPOCH":"2026-03-28T06:08:02.404032","MEAN_MOTION":1.00275572,"ECCENTRICITY":0.0009589,"INCLINATION":14.0818,"RA_OF_ASC_NODE":354.3784,"ARG_OF_PERICENTER":279.2122,"MEAN_ANOMALY":196.4212,"EPHEMERIS_TYPE":0,"CLASSIFICATION_TYPE":"U","NORAD_CAT_ID":21639,"ELEMENT_SET_NO":999,"REV_AT_EPOCH":12690,"BSTAR":0,"MEAN_MOTION_DOT":7.2e-7,"MEAN_MOTION_DDOT":0},{"OBJECT_NAME":"TDRS 6","OBJECT_ID":"1993-003B","EPOCH":"2026-03-28T21:19:27.384960","MEAN_MOTION":1.0026987,"ECCENTRICITY":0.0005043,"INCLINATION":14.1817,"RA_OF_ASC_NODE":357.6547,"ARG_OF_PERICENTER":185.4414,"MEAN_ANOMALY":277.229,"EPHEMERIS_TYPE":0,"CLASSIFICATION_TYPE":"U","NORAD_CAT_ID":22314,"ELEMENT_SET_NO":999,"REV_AT_EPOCH":12160,"BSTAR":0,"MEAN_MOTION_DOT":-3.08e-6,"MEAN_MOTION_DDOT":0},{"OBJECT_NAME":"UFO 2 (USA 95)","OBJECT_ID":"1993-056A","EPOCH":"2026-03-27T23:28:38.745408","MEAN_MOTION":1.00274849,"ECCENTRICITY":0.00089609,"INCLINATION":11.867,"RA_OF_ASC_NODE":3.9952,"ARG_OF_PERICENTER":345.433,"MEAN_ANOMALY":216.7946,"EPHEMERIS_TYPE":0,"CLASSIFICATION_TYPE":"U","NORAD_CAT_ID":22787,"ELEMENT_SET_NO":999,"REV_AT_EPOCH":11773,"BSTAR":0,"MEAN_MOTION_DOT":1.12e-6,"MEAN_MOTION_DDOT":0},{"OBJECT_NAME":"USA 99 (MILSTAR-1 1)","OBJECT_ID":"1994-009A","EPOCH":"2026-03-28T07:54:38.768832","MEAN_MOTION":1.0027332,"ECCENTRICITY":0.00039581,"INCLINATION":17.4988,"RA_OF_ASC_NODE":28.5814,"ARG_OF_PERICENTER":324.3153,"MEAN_ANOMALY":221.5262,"EPHEMERIS_TYPE":0,"CLASSIFICATION_TYPE":"U","NORAD_CAT_ID":22988,"ELEMENT_SET_NO":999,"REV_AT_EPOCH":3214,"BSTAR":0,"MEAN_MOTION_DOT":-2.1e-6,"MEAN_MOTION_DDOT":0},{"OBJECT_NAME":"UFO 4 (USA 108)","OBJECT_ID":"1995-003A","EPOCH":"2026-03-27T14:09:38.772576","MEAN_MOTION":1.00277049,"ECCENTRICITY":0.00037326,"INCLINATION":9.6904,"RA_OF_ASC_NODE":13.4957,"ARG_OF_PERICENTER":357.2668,"MEAN_ANOMALY":199.1647,"EPHEMERIS_TYPE":0,"CLASSIFICATION_TYPE":"U","NORAD_CAT_ID":23467,"ELEMENT_SET_NO":999,"REV_AT_EPOCH":11413,"BSTAR":0,"MEAN_MOTION_DOT":-3.2e-7,"MEAN_MOTION_DDOT":0},{"OBJECT_NAME":"TDRS 7","OBJECT_ID":"1995-035B","EPOCH":"2026-03-28T17:19:38.578656","MEAN_MOTION":1.00270113,"ECCENTRICITY":0.00092198,"INCLINATION":13.4109,"RA_OF_ASC_NODE":348.7422,"ARG_OF_PERICENTER":54.013,"MEAN_ANOMALY":132.357,"EPHEMERIS_TYPE":0,"CLASSIFICATION_TYPE":"U","NORAD_CAT_ID":23613,"ELEMENT_SET_NO":999,"REV_AT_EPOCH":11244,"BSTAR":0,"MEAN_MOTION_DOT":-2.51e-6,"MEAN_MOTION_DDOT":0},{"OBJECT_NAME":"USA 115 (MILSTAR-1 2)","OBJECT_ID":"1995-060A","EPOCH":"2026-03-28T09:22:38.703072","MEAN_MOTION":1.00274213,"ECCENTRICITY":0.00038863,"INCLINATION":14.0449,"RA_OF_ASC_NODE":4.3498,"ARG_OF_PERICENTER":348.9027,"MEAN_ANOMALY":213.2109,"EPHEMERIS_TYPE":0,"CLASSIFICATION_TYPE":"U","NORAD_CAT_ID":23712,"ELEMENT_SET_NO":999,"REV_AT_EPOCH":3207,"BSTAR":0,"MEAN_MOTION_DOT":-3.3e-7,"MEAN_MOTION_DDOT":0},{"OBJECT_NAME":"INMARSAT 3-F1","OBJECT_ID":"1996-020A","EPOCH":"2026-03-28T16:25:55.831872","MEAN_MOTION":1.00000984,"ECCENTRICITY":0.00050013,"INCLINATION":10.4354,"RA_OF_ASC_NODE":47.3616,"ARG_OF_PERICENTER":296.7094,"MEAN_ANOMALY":74.9858,"EPHEMERIS_TYPE":0,"CLASSIFICATION_TYPE":"U","NORAD_CAT_ID":23839,"ELEMENT_SET_NO":999,"REV_AT_EPOCH":10945,"BSTAR":0,"MEAN_MOTION_DOT":-1.74e-6,"MEAN_MOTION_DDOT":0},{"OBJECT_NAME":"INMARSAT 3-F2","OBJECT_ID":"1996-053A","EPOCH":"2026-03-28T12:23:38.721696","MEAN_MOTION":0.99982304,"ECCENTRICITY":0.00063722,"INCLINATION":9.6757,"RA_OF_ASC_NODE":54.7427,"ARG_OF_PERICENTER":318.0222,"MEAN_ANOMALY":228.4243,"EPHEMERIS_TYPE":0,"CLASSIFICATION_TYPE":"U","NORAD_CAT_ID":24307,"ELEMENT_SET_NO":999,"REV_AT_EPOCH":10811,"BSTAR":0,"MEAN_MOTION_DOT":7.1e-7,"MEAN_MOTION_DDOT":0},{"OBJECT_NAME":"INMARSAT 3-F3","OBJECT_ID":"1996-070A","EPOCH":"2026-03-28T18:48:42.141312","MEAN_MOTION":0.99992712,"ECCENTRICITY":0.00058826,"INCLINATION":10.1462,"RA_OF_ASC_NODE":50.4074,"ARG_OF_PERICENTER":293.2173,"MEAN_ANOMALY":251.9723,"EPHEMERIS_TYPE":0,"CLASSIFICATION_TYPE":"U","NORAD_CAT_ID":24674,"ELEMENT_SET_NO":999,"REV_AT_EPOCH":10710,"BSTAR":0,"MEAN_MOTION_DOT":-3.71e-6,"MEAN_MOTION_DDOT":0},{"OBJECT_NAME":"AMC-3","OBJECT_ID":"1997-050A","EPOCH":"2026-03-28T08:44:38.720256","MEAN_MOTION":1.00272008,"ECCENTRICITY":0.00033484,"INCLINATION":7.9494,"RA_OF_ASC_NODE":64.994,"ARG_OF_PERICENTER":305.1825,"MEAN_ANOMALY":234.7528,"EPHEMERIS_TYPE":0,"CLASSIFICATION_TYPE":"U","NORAD_CAT_ID":24936,"ELEMENT_SET_NO":999,"REV_AT_EPOCH":5162,"BSTAR":0,"MEAN_MOTION_DOT":-2.76e-6,"MEAN_MOTION_DDOT":0},{"OBJECT_NAME":"USA 134","OBJECT_ID":"1997-065A","EPOCH":"2026-03-28T21:05:44.290176","MEAN_MOTION":1.00268868,"ECCENTRICITY":0.00065707,"INCLINATION":12.6905,"RA_OF_ASC_NODE":22.3187,"ARG_OF_PERICENTER":316.7634,"MEAN_ANOMALY":51.2434,"EPHEMERIS_TYPE":0,"CLASSIFICATION_TYPE":"U","NORAD_CAT_ID":25019,"ELEMENT_SET_NO":999,"REV_AT_EPOCH":3215,"BSTAR":0,"MEAN_MOTION_DOT":-7.4e-7,"MEAN_MOTION_DDOT":0},{"OBJECT_NAME":"INMARSAT 3-F5","OBJECT_ID":"1998-006B","EPOCH":"2026-03-28T19:39:42.812064","MEAN_MOTION":1.00274605,"ECCENTRICITY":0.00051885,"INCLINATION":9.5159,"RA_OF_ASC_NODE":54.0427,"ARG_OF_PERICENTER":311.4727,"MEAN_ANOMALY":61.6227,"EPHEMERIS_TYPE":0,"CLASSIFICATION_TYPE":"U","NORAD_CAT_ID":25153,"ELEMENT_SET_NO":999,"REV_AT_EPOCH":10309,"BSTAR":0,"MEAN_MOTION_DOT":-3.04e-6,"MEAN_MOTION_DDOT":0},{"OBJECT_NAME":"ABS-6","OBJECT_ID":"1999-053A","EPOCH":"2026-03-28T20:40:31.707840","MEAN_MOTION":1.00270849,"ECCENTRICITY":0.00028744,"INCLINATION":0.03,"RA_OF_ASC_NODE":108.2451,"ARG_OF_PERICENTER":269.2708,"MEAN_ANOMALY":277.8755,"EPHEMERIS_TYPE":0,"CLASSIFICATION_TYPE":"U","NORAD_CAT_ID":25924,"ELEMENT_SET_NO":999,"REV_AT_EPOCH":9703,"BSTAR":0,"MEAN_MOTION_DOT":-1.39e-6,"MEAN_MOTION_DDOT":0}]
